MEAN_MOTION;ECCENTRICITY;INCLINATION;RA_OF_ASC_NODE;ARG_OF_PERICENTER;MEAN_ANOMALY;BSTAR;MEAN_MOTION_DOT;MEAN_MOTION_DDOT;TYPE
14.80054258;0.0136961;86.3987;37.4061;282.4806;76.112;2.9512E-5;2.92E-6;0;Iridium
14.80054533;0.0136945;86.3988;37.1628;280.5479;78.0339;2.8736E-5;2.85E-6;0;Iridium
14.80054533;0.0136945;86.3988;37.1628;280.5479;78.0339;2.8736E-5;2.85E-6;0;Iridium
14.80054825;0.0136931;86.3989;36.9499;278.8583;79.7155;2.8645E-5;2.84E-6;0;Iridium
14.80055331;0.0136914;86.399;36.6762;276.6831;81.8824;3.1266E-5;3.07E-6;0;Iridium
14.80055331;0.0136914;86.399;36.6762;276.6831;81.8824;3.1266E-5;3.07E-6;0;Iridium
14.80055445;0.0136899;86.3991;36.4937;275.2303;83.3309;2.9058E-5;2.88E-6;0;Iridium
14.80055721;0.0136891;86.3991;36.2809;273.5434;85.014;2.935E-5;2.9E-6;0;Iridium
14.80056012;0.0136883;86.3992;36.0681;271.854;86.7009;2.9371E-5;2.9E-6;0;Iridium
14.80056258;0.0136882;86.3993;35.8552;270.1633;88.3904;2.8737E-5;2.85E-6;0;Iridium
14.80056258;0.0136882;86.3993;35.8552;270.1633;88.3904;2.8737E-5;2.85E-6;0;Iridium
14.80056976;0.0136887;86.3996;35.1863;264.8518;93.7068;2.5879E-5;2.59E-6;0;Iridium
14.80057246;0.0136895;86.3997;34.9126;262.6789;95.8856;2.5564E-5;2.57E-6;0;Iridium
14.80057421;0.0136899;86.3998;34.6998;260.9876;97.5831;2.4673E-5;2.49E-6;0;Iridium
14.80057641;0.0136905;86.3998;34.4869;259.2943;99.2839;2.5562E-5;2.57E-6;0;Iridium
14.80057866;0.0136915;86.3998;34.2436;257.3648;101.2235;2.5034E-5;2.52E-6;0;Iridium
14.80058041;0.0136938;86.3999;33.8179;253.9869;104.6234;2.0518E-5;2.12E-6;0;Iridium
14.80058301;0.0136959;86.4001;33.5139;251.5771;107.0521;2.0726E-5;2.14E-6;0;Iridium
14.80058412;0.013697;86.4001;33.3923;250.6132;108.0242;2.0618E-5;2.13E-6;0;Iridium
14.80058743;0.0136997;86.4002;33.0883;248.2007;110.4592;2.2821E-5;2.33E-6;0;Iridium
14.80058863;0.0137018;86.4003;32.906;246.7528;111.9219;2.2254E-5;2.28E-6;0;Iridium
14.80059055;0.0137047;86.4003;32.6324;244.5843;114.1143;2.1884E-5;2.25E-6;0;Iridium
14.80059055;0.0137047;86.4003;32.6324;244.5843;114.1143;2.1884E-5;2.25E-6;0;Iridium
14.80059163;0.0137072;86.4004;32.45;243.1368;115.5787;2.1027E-5;2.17E-6;0;Iridium
14.80059441;0.0137107;86.4005;32.2068;241.2098;117.5299;2.2403E-5;2.29E-6;0;Iridium
14.80059421;0.0137109;86.4005;32.1764;240.9675;117.7753;2.1658E-5;2.23E-6;0;Iridium
14.80059527;0.0137133;86.4005;32.0245;239.7616;118.9972;2.1026E-5;2.17E-6;0;Iridium
14.80059822;0.0137179;86.4006;31.7205;237.3522;121.4403;2.1948E-5;2.25E-6;0;Iridium
14.80059911;0.0137203;86.4006;31.5685;236.149;122.6613;2.0836E-5;2.16E-6;0;Iridium
14.80060133;0.0137249;86.4007;31.295;233.9807;124.8631;2.1048E-5;2.18E-6;0;Iridium
14.80060133;0.0137251;86.4007;31.2646;233.7393;125.1084;2.0818E-5;2.16E-6;0;Iridium
14.80060218;0.0137278;86.4007;31.1127;232.5362;126.331;1.9562E-5;2.04E-6;0;Iridium
14.80060315;0.0137307;86.4008;30.9607;231.3331;127.5542;1.919E-5;2.01E-6;0;Iridium
14.80060546;0.0137364;86.4009;30.6568;228.9279;130.0012;1.8369E-5;1.94E-6;0;Iridium
14.80060862;0.0137419;86.401;30.3833;226.7633;132.2053;1.9861E-5;2.07E-6;0;Iridium
14.80060862;0.0137419;86.401;30.3833;226.7633;132.2053;1.9861E-5;2.07E-6;0;Iridium
14.8006093;0.0137453;86.401;30.2313;225.5604;133.4308;1.8443E-5;1.95E-6;0;Iridium
14.80061149;0.0137514;86.4011;29.9578;223.3979;135.6353;1.8745E-5;1.98E-6;0;Iridium
14.80061284;0.0137554;86.4012;29.7755;221.9564;137.1057;1.8555E-5;1.96E-6;0;Iridium
14.80061462;0.0137611;86.4013;29.502;219.7939;139.3129;1.8265E-5;1.94E-6;0;Iridium
14.80061469;0.0137615;86.4013;29.4716;219.5533;139.5586;1.8086E-5;1.92E-6;0;Iridium
14.80061519;0.0137656;86.4013;29.3197;218.3524;140.785;1.6456E-5;1.78E-6;0;Iridium
14.80061801;0.013772;86.4014;29.0462;216.1931;142.9914;1.7855E-5;1.9E-6;0;Iridium
14.80061935;0.0137769;86.4014;28.8638;214.7524;144.4643;1.7723E-5;1.89E-6;0;Iridium
14.80062197;0.0137833;86.4015;28.5904;212.5977;146.6682;1.9011E-5;2.01E-6;0;Iridium
14.80062363;0.0137875;86.4015;28.4384;211.3997;147.8942;1.9586E-5;2.06E-6;0;Iridium
14.80062703;0.013796;86.4016;28.1346;209.0013;150.3496;2.2006E-5;2.28E-6;0;Iridium
14.80062703;0.013796;86.4016;28.1346;209.0013;150.3496;2.2006E-5;2.28E-6;0;Iridium
14.8006273;0.013797;86.4016;28.1042;208.7613;150.5954;2.2176E-5;2.29E-6;0;Iridium
14.80062845;0.0138005;86.4016;27.9826;207.8043;151.5757;2.2256E-5;2.3E-6;0;Iridium
14.80063213;0.0138084;86.4016;27.6788;205.4099;154.0292;2.4618E-5;2.51E-6;0;Iridium
14.80063328;0.0138126;86.4017;27.5269;204.2136;155.2555;2.4042E-5;2.46E-6;0;Iridium
14.80063429;0.0138149;86.4017;27.4661;203.7337;155.7476;2.5121E-5;2.56E-6;0;Iridium
14.80063798;0.0138259;86.4017;27.0711;200.6256;158.9354;2.4809E-5;2.53E-6;0;Iridium
14.80063902;0.0138298;86.4017;26.9495;199.6706;159.9152;2.4504E-5;2.51E-6;0;Iridium
14.80063954;0.0138314;86.4017;26.8887;199.1938;160.4046;2.3956E-5;2.46E-6;0;Iridium
14.80064226;0.013839;86.4017;26.6457;197.2829;162.3659;2.4305E-5;2.49E-6;0;Iridium
14.80064536;0.0138456;86.4018;26.433;195.6127;164.0806;2.6554E-5;2.69E-6;0;Iridium
14.80064536;0.0138456;86.4018;26.433;195.6127;164.0806;2.6554E-5;2.69E-6;0;Iridium
14.80064799;0.0138528;86.4018;26.1899;193.7037;166.0411;2.6415E-5;2.68E-6;0;Iridium
14.80065076;0.0138587;86.4018;26.0076;192.2738;167.5099;2.798E-5;2.82E-6;0;Iridium
14.80065446;0.0138666;86.4018;25.7342;190.1282;169.7141;2.8302E-5;2.85E-6;0;Iridium
14.80065808;0.0138723;86.4018;25.5519;188.7016;171.1801;3.0695E-5;3.07E-6;0;Iridium
14.80065808;0.0138723;86.4018;25.5519;188.7016;171.1801;3.0695E-5;3.07E-6;0;Iridium
14.80066087;0.01388;86.4018;25.3088;186.7959;173.1387;2.9989E-5;3.0E-6;0;Iridium
14.80066379;0.0138868;86.4019;25.0962;185.1315;174.8494;3.0641E-5;3.06E-6;0;Iridium
14.80066542;0.0138927;86.4018;24.9443;183.94;176.0742;3.0393E-5;3.04E-6;0;Iridium
14.80066655;0.0138956;86.4018;24.8531;183.227;176.8072;3.0033E-5;3.01E-6;0;Iridium
14.80067162;0.0139118;86.4019;24.367;179.4238;180.7171;2.8322E-5;2.86E-6;0;Iridium
14.80067272;0.0139172;86.4019;24.2151;178.237;181.9374;2.6348E-5;2.69E-6;0;Iridium
14.80067577;0.0139249;86.4019;23.972;176.3356;183.8922;2.6285E-5;2.68E-6;0;Iridium
14.80067773;0.0139314;86.4019;23.7593;174.6772;185.5972;2.5199E-5;2.59E-6;0;Iridium
14.80067773;0.0139314;86.4019;23.7593;174.6772;185.5972;2.5199E-5;2.59E-6;0;Iridium
14.8006807;0.0139387;86.4019;23.5163;172.7791;187.5485;2.5146E-5;2.58E-6;0;Iridium
14.80068194;0.0139461;86.4019;23.3035;171.1214;189.2525;2.3286E-5;2.42E-6;0;Iridium
14.80068194;0.0139461;86.4019;23.3035;171.1214;189.2525;2.3286E-5;2.42E-6;0;Iridium
14.80068432;0.0139553;86.4019;23.0604;169.2241;191.2027;2.3053E-5;2.4E-6;0;Iridium
14.8006889;0.0139705;86.4019;22.6047;165.6722;194.8527;2.3127E-5;2.41E-6;0;Iridium
14.80069328;0.0139829;86.4019;22.1793;162.3615;198.2535;2.3575E-5;2.45E-6;0;Iridium
14.80069548;0.0139901;86.4019;21.9363;160.4725;200.1934;2.3565E-5;2.45E-6;0;Iridium
14.80069786;0.0139976;86.4019;21.6933;158.5838;202.1322;2.3844E-5;2.48E-6;0;Iridium
14.80070065;0.0140063;86.4019;21.4198;156.459;204.3128;2.5074E-5;2.59E-6;0;Iridium
14.80070065;0.0140063;86.4019;21.4198;156.459;204.3128;2.5074E-5;2.59E-6;0;Iridium
14.80070256;0.0140109;86.4019;21.2376;155.0436;205.7648;2.5458E-5;2.62E-6;0;Iridium
14.80070456;0.0140159;86.4019;21.0553;153.6286;207.216;2.5941E-5;2.67E-6;0;Iridium
14.80070609;0.0140244;86.4018;20.8122;151.7407;209.1518;2.4463E-5;2.54E-6;0;Iridium
14.8007111;0.0140353;86.4017;20.4173;148.6778;212.2902;2.6078E-5;2.68E-6;0;Iridium
14.80071142;0.0140362;86.4017;20.3869;148.4426;212.5312;2.5988E-5;2.68E-6;0;Iridium
14.80071517;0.014047;86.4017;20.0224;145.6202;215.421;2.6621E-5;2.73E-6;0;Iridium
14.80071517;0.014047;86.4017;20.0224;145.6202;215.421;2.6621E-5;2.73E-6;0;Iridium
14.80071611;0.0140494;86.4017;19.9312;144.9148;216.1429;2.6377E-5;2.71E-6;0;Iridium
14.80072042;0.014056;86.4016;19.7185;143.2699;217.8258;3.0522E-5;3.09E-6;0;Iridium
14.80072351;0.0140669;86.4015;19.2931;139.9801;221.189;2.8074E-5;2.87E-6;0;Iridium
14.80072351;0.0140669;86.4015;19.2931;139.9801;221.189;2.8074E-5;2.87E-6;0;Iridium
14.80072641;0.014073;86.4015;19.0501;138.0997;223.1099;2.7889E-5;2.85E-6;0;Iridium
14.80072777;0.0140778;86.4015;18.8374;136.4579;224.7861;2.5949E-5;2.68E-6;0;Iridium
14.80073038;0.0140831;86.4015;18.6247;134.8144;226.463;2.6062E-5;2.69E-6;0;Iridium
14.8007308;0.0140837;86.4015;18.5943;134.5795;226.7026;2.61E-5;2.69E-6;0;Iridium
14.80073286;0.014089;86.4015;18.3817;132.9392;228.3752;2.6039E-5;2.69E-6;0;Iridium
14.80073452;0.0140942;86.4015;18.1387;131.0611;230.289;2.4023E-5;2.51E-6;0;Iridium
14.80073842;0.0140991;86.4015;17.926;129.4183;231.9621;2.7871E-5;2.86E-6;0;Iridium
14.80073842;0.0140991;86.4015;17.926;129.4183;231.9621;2.7871E-5;2.86E-6;0;Iridium
14.80074072;0.0141042;86.4014;17.6829;127.5416;233.872;2.7183E-5;2.79E-6;0;Iridium
14.80074266;0.0141083;86.4014;17.4701;125.9007;235.5407;2.677E-5;2.76E-6;0;Iridium
14.80074453;0.0141124;86.4014;17.2879;124.4956;236.9689;2.6465E-5;2.73E-6;0;Iridium
14.800745;0.0141134;86.4014;17.2271;124.0267;237.4452;2.6083E-5;2.7E-6;0;Iridium
14.80074714;0.0141168;86.4014;17.0448;122.6246;238.8692;2.6637E-5;2.75E-6;0;Iridium
14.80074981;0.0141212;86.4014;16.8017;120.7514;240.7703;2.6737E-5;2.76E-6;0;Iridium
14.80075293;0.0141251;86.4013;16.5889;119.116;242.4288;2.8993E-5;2.96E-6;0;Iridium
14.80075293;0.0141251;86.4013;16.5889;119.116;242.4288;2.8993E-5;2.96E-6;0;Iridium
14.80075571;0.0141289;86.4013;16.3458;117.2429;244.3269;2.9726E-5;3.03E-6;0;Iridium
14.8007576;0.0141315;86.4012;16.1635;115.8401;245.7474;3.0185E-5;3.07E-6;0;Iridium
14.80076167;0.0141363;86.4011;15.89;113.7381;247.8743;3.1673E-5;3.2E-6;0;Iridium
14.8007634;0.0141384;86.4011;15.7076;112.3359;249.2919;3.1114E-5;3.15E-6;0;Iridium
14.8007634;0.0141384;86.4011;15.7076;112.3359;249.2919;3.1114E-5;3.15E-6;0;Iridium
14.80076662;0.014142;86.401;15.4646;110.4666;251.1803;3.1184E-5;3.16E-6;0;Iridium
14.80077054;0.0141443;86.401;15.2518;108.833;252.8293;3.3542E-5;3.37E-6;0;Iridium
14.8007709;0.0141447;86.401;15.2214;108.599;253.0654;3.3534E-5;3.37E-6;0;Iridium
